[ {"name": "STARLINK-36448", "line1": "1 67354U 26003W   26158.46841303  .00026261  00000+0  95961-3 0  9996", "line2": "2 67354  42.9963  80.1036 0002720 279.5599  80.4945 15.27606448 22552"}, {"name": "STARLINK-36477", "line1": "1 67355U 26003X   26158.49025828  .00030059  00000+0  10965-2 0  9996", "line2": "2 67355  42.9944  80.2809 0002873 271.2347  88.8175 15.27605850 22553"}, {"name": "STARLINK-36429", "line1": "1 67356U 26003Y   26158.48641100  .00023766  00000+0  87008-3 0  9993", "line2": "2 67356  42.9971  80.2509 0002065 263.7456  96.3161 15.27590274 22553"}, {"name": "STARLINK-36456", "line1": "1 67357U 26003Z   26158.72613183  .00036444  00000+0  13263-2 0  9999", "line2": "2 67357  42.9996  78.6005 0001441 258.5669 101.5021 15.27605438 22595"}, {"name": "STARLINK-36466", "line1": "1 67358U 26003AA  26158.50811000  .00023721  00000+0  86905-3 0  9992", "line2": "2 67358  43.0037  79.5401 0000302 247.9722 112.1098 15.27568914 22567"}, {"name": "STARLINK-36499", "line1": "1 67359U 26003AB  26158.49540602  .00019562  00000+0  71833-3 0  9990", "line2": "2 67359  43.0040  80.3174 0001425 267.2901  92.7787 15.27588352 22555"}, {"name": "STARLINK-36469", "line1": "1 67360U 26003AC  26158.49154145  .00023221  00000+0  84958-3 0  9994", "line2": "2 67360  43.0007  80.2926 0003931 268.7136  91.3265 15.27619345 22557"}, {"name": "STARLINK-35306", "line1": "1 67361U 26003AD  26158.06582041  .00019724  00000+0  72391-3 0  9999", "line2": "2 67361  42.9992  82.2444 0000937 266.4529  93.6216 15.27600263 22493"}, {"name": "STARLINK-36428", "line1": "1 67362U 26003AE  26158.06324786  .00003625  00000+0  14116-3 0  9994", "line2": "2 67362  43.0013  82.2233 0001108 263.1537  96.9188 15.27584259 22490"}, {"name": "STARLINK-36484", "line1": "1 67404U 26005A   26158.09775964  .00020525  00000+0  75286-3 0  9997", "line2": "2 67404  42.9991  92.7695 0001096 264.8754  95.1973 15.27599421 22370"}, {"name": "STARLINK-36452", "line1": "1 67405U 26005B   26157.11182415  .00023958  00000+0  87674-3 0  9990", "line2": "2 67405  43.0018  98.2653 0001083 255.7098 104.3633 15.27600925 22226"}, {"name": "STARLINK-36409", "line1": "1 67406U 26005C   26158.12988023  .00018229  00000+0  67004-3 0  9992", "line2": "2 67406  43.0030  93.0156 0000549 210.5027 149.5792 15.27592840 22378"}, {"name": "STARLINK-36510", "line1": "1 67407U 26005D   26158.51578431  .00020262  00000+0  74355-3 0  9991", "line2": "2 67407  43.0034  90.7428 0000036 332.3046  27.7803 15.27590651 22439"}, {"name": "STARLINK-36509", "line1": "1 67408U 26005E   26158.50035663  .00027307  00000+0  99762-3 0  9992", "line2": "2 67408  42.9977  90.6284 0002265 273.4221  86.6372 15.27597431 22426"}, {"name": "STARLINK-36507", "line1": "1 67409U 26005F   26158.52990566  .00027373  00000+0  99987-3 0  9999", "line2": "2 67409  43.0034  90.8537 0004238 266.6353  93.4014 15.27596830 22430"}, {"name": "STARLINK-36508", "line1": "1 67410U 26005G   26158.54021052  .00020418  00000+0  74964-3 0  9999", "line2": "2 67410  42.9885  90.9313 0003286  94.4531 265.6696 15.27568010 22432"}, {"name": "STARLINK-36503", "line1": "1 67411U 26005H   26158.50421544  .00028536  00000+0  10420-2 0  9991", "line2": "2 67411  42.9991  90.6515 0001404 276.8436  83.2256 15.27596665 22435"}, {"name": "STARLINK-36446", "line1": "1 67412U 26005J   26158.51062895  .00017257  00000+0  63560-3 0  9995", "line2": "2 67412  42.9901  90.7087 0003037 265.4472  94.6032 15.27555303 22432"}, {"name": "STARLINK-36442", "line1": "1 67413U 26005K   26158.10033102  .00018889  00000+0  69345-3 0  9999", "line2": "2 67413  43.0019  92.7857 0000862 144.0258 216.0652 15.27614858 22371"}, {"name": "STARLINK-36506", "line1": "1 67414U 26005L   26158.10546997  .00019736  00000+0  72399-3 0  9996", "line2": "2 67414  43.0069  92.8227 0001488 113.9922 246.1085 15.27616172 22372"}, {"name": "STARLINK-36468", "line1": "1 67415U 26005M   26158.53762411  .00003508  00000+0  13694-3 0  9998", "line2": "2 67415  43.0055  90.9116 0001922 284.9474  75.1164 15.27581153 22433"}, {"name": "STARLINK-36487", "line1": "1 67416U 26005N   26158.53250490  .00021506  00000+0  78919-3 0  9997", "line2": "2 67416  43.0033  90.8717 0000982 248.8475 111.2272 15.27561423 22431"}, {"name": "STARLINK-36374", "line1": "1 67417U 26005P   26158.12730711  .00026419  00000+0  96514-3 0  9991", "line2": "2 67417  43.0117  92.9890 0000697  99.3376 260.7555 15.27613946 22377"}, {"name": "STARLINK-36455", "line1": "1 67418U 26005Q   26158.51191867  .00025846  00000+0  94495-3 0  9997", "line2": "2 67418  42.9963  90.7114 0002350 267.8826  92.1756 15.27596096 22433"}, {"name": "STARLINK-36424", "line1": "1 67419U 26005R   26158.49650130  .00020476  00000+0  75109-3 0  9993", "line2": "2 67419  42.9960  90.5946 0002229 275.1440  84.9157 15.27598808 22438"}, {"name": "STARLINK-35564", "line1": "1 67420U 26005S   26158.51705366  .00025804  00000+0  94332-3 0  9999", "line2": "2 67420  43.0046  90.7522 0002548 261.9864  98.0699 15.27600746 22438"}, {"name": "STARLINK-36431", "line1": "1 67421U 26005T   26158.53634411  .00021309  00000+0  78138-3 0  9996", "line2": "2 67421  43.0025  90.9014 0000900 257.3207 102.7544 15.27590634 22430"}, {"name": "STARLINK-36418", "line1": "1 67422U 26005U   26158.09647074  .00021323  00000+0  78155-3 0  9992", "line2": "2 67422  43.0001  92.7530 0001422 267.3148  92.7541 15.27604930 22376"}, {"name": "STARLINK-36465", "line1": "1 67423U 26005V   26158.52862350  .00019220  00000+0  70540-3 0  9990", "line2": "2 67423  43.0011  90.8436 0004270 261.1420  98.8948 15.27609364 22432"}, {"name": "STARLINK-36362", "line1": "1 67424U 26005W   26158.51448373  .00023680  00000+0  86667-3 0  9997", "line2": "2 67424  42.9990  90.7324 0002427 272.3733  87.6841 15.27602168 22438"}]