OBJECT_NAME,OBJECT_ID,EPOCH,MEAN_MOTION,ECCENTRICITY,INCLINATION,RA_OF_ASC_NODE,ARG_OF_PERICENTER,MEAN_ANOMALY,EPHEMERIS_TYPE,CLASSIFICATION_TYPE,NORAD_CAT_ID,ELEMENT_SET_NO,REV_AT_EPOCH,BSTAR,MEAN_MOTION_DOT,MEAN_MOTION_DDOT
STARLINK-36448,2026-003W,2026-06-07T11:14:30.885792,15.27606448,.000272,42.9963,80.1036,279.5599,80.4945,0,U,67354,999,2255,.95961E-3,.26261E-3,0
STARLINK-36477,2026-003X,2026-06-07T11:45:58.315392,15.27605850,.0002873,42.9944,80.2809,271.2347,88.8175,0,U,67355,999,2255,.10965E-2,.30059E-3,0
STARLINK-36429,2026-003Y,2026-06-07T11:40:25.910400,15.27590274,.0002065,42.9971,80.2509,263.7456,96.3161,0,U,67356,999,2255,.87008E-3,.23766E-3,0
STARLINK-36456,2026-003Z,2026-06-07T17:25:37.790112,15.27605438,.0001441,42.9996,78.6005,258.5669,101.5021,0,U,67357,999,2259,.13263E-2,.36444E-3,0
STARLINK-36466,2026-003AA,2026-06-07T12:11:40.704000,15.27568914,.0000302,43.0037,79.5401,247.9722,112.1098,0,U,67358,999,2256,.86905E-3,.23721E-3,0
STARLINK-36499,2026-003AB,2026-06-07T11:53:23.080128,15.27588352,.0001425,43.0040,80.3174,267.2901,92.7787,0,U,67359,999,2255,.71833E-3,.19562E-3,0
STARLINK-36469,2026-003AC,2026-06-07T11:47:49.181280,15.27619345,.0003931,43.0007,80.2926,268.7136,91.3265,0,U,67360,999,2255,.84958E-3,.23221E-3,0
STARLINK-35306,2026-003AD,2026-06-07T01:34:46.883424,15.27600263,.0000937,42.9992,82.2444,266.4529,93.6216,0,U,67361,999,2249,.72391E-3,.19724E-3,0
STARLINK-36428,2026-003AE,2026-06-07T01:31:04.615104,15.27584259,.0001108,43.0013,82.2233,263.1537,96.9188,0,U,67362,999,2249,.14116E-3,.3625E-4,0
STARLINK-36484,2026-005A,2026-06-07T02:20:46.432896,15.27599421,.0001096,42.9991,92.7695,264.8754,95.1973,0,U,67404,999,2237,.75286E-3,.20525E-3,0
STARLINK-36452,2026-005B,2026-06-06T02:41:01.606560,15.27600925,.00010839,43.0018,98.2653,255.7098,104.3633,0,U,67405,999,2222,.87674237E-3,.23958E-3,0
STARLINK-36409,2026-005C,2026-06-07T03:07:01.651872,15.27592840,.0000549,43.0030,93.0156,210.5027,149.5792,0,U,67406,999,2237,.67004E-3,.18229E-3,0
STARLINK-36510,2026-005D,2026-06-07T12:22:43.764384,15.27590651,.0000036,43.0034,90.7428,332.3046,27.7803,0,U,67407,999,2243,.74355E-3,.20262E-3,0
STARLINK-36509,2026-005E,2026-06-07T12:00:30.812832,15.27597431,.0002265,42.9977,90.6284,273.4221,86.6372,0,U,67408,999,2242,.99762E-3,.27307E-3,0
STARLINK-36507,2026-005F,2026-06-07T12:43:03.849024,15.27596830,.0004238,43.0034,90.8537,266.6353,93.4014,0,U,67409,999,2243,.99987E-3,.27373E-3,0
STARLINK-36508,2026-005G,2026-06-07T12:57:54.188928,15.27568010,.0003286,42.9885,90.9313,94.4531,265.6696,0,U,67410,999,2243,.74964E-3,.20418E-3,0
STARLINK-36503,2026-005H,2026-06-07T12:06:04.214016,15.27596665,.0001404,42.9991,90.6515,276.8436,83.2256,0,U,67411,999,2243,.1042E-2,.28536E-3,0
STARLINK-36446,2026-005J,2026-06-07T12:15:18.341280,15.27555303,.0003037,42.9901,90.7087,265.4472,94.6032,0,U,67412,999,2243,.6356E-3,.17257E-3,0
STARLINK-36442,2026-005K,2026-06-07T02:24:28.600128,15.27614858,.0000862,43.0019,92.7857,144.0258,216.0652,0,U,67413,999,2237,.69345E-3,.18889E-3,0
STARLINK-36506,2026-005L,2026-06-07T02:31:52.605408,15.27616172,.0001488,43.0069,92.8227,113.9922,246.1085,0,U,67414,999,2237,.72399E-3,.19736E-3,0
STARLINK-36468,2026-005M,2026-06-07T12:54:10.723104,15.27581153,.0001922,43.0055,90.9116,284.9474,75.1164,0,U,67415,999,2243,.13694E-3,.3508E-4,0
STARLINK-36487,2026-005N,2026-06-07T12:46:48.423360,15.27561423,.0000982,43.0033,90.8717,248.8475,111.2272,0,U,67416,999,2243,.78919E-3,.21506E-3,0
STARLINK-36374,2026-005P,2026-06-07T03:03:19.334304,15.27613946,.0000697,43.0117,92.9890,99.3376,260.7555,0,U,67417,999,2237,.96514E-3,.26419E-3,0
STARLINK-36455,2026-005Q,2026-06-07T12:17:09.773088,15.27596096,.000235,42.9963,90.7114,267.8826,92.1756,0,U,67418,999,2243,.94495E-3,.25846E-3,0
STARLINK-36424,2026-005R,2026-06-07T11:54:57.712320,15.27598808,.0002229,42.9960,90.5946,275.1440,84.9157,0,U,67419,999,2243,.75109E-3,.20476E-3,0
STARLINK-35564,2026-005S,2026-06-07T12:24:33.436224,15.27600746,.0002548,43.0046,90.7522,261.9864,98.0699,0,U,67420,999,2243,.94332E-3,.25804E-3,0
STARLINK-36431,2026-005T,2026-06-07T12:52:20.131104,15.27590634,.00009,43.0025,90.9014,257.3207,102.7544,0,U,67421,999,2243,.78138E-3,.21309E-3,0
STARLINK-36418,2026-005U,2026-06-07T02:18:55.071936,15.27604930,.0001422,43.0001,92.7530,267.3148,92.7541,0,U,67422,999,2237,.78155E-3,.21323E-3,0
STARLINK-36465,2026-005V,2026-06-07T12:41:13.070400,15.27609364,.000427,43.0011,90.8436,261.1420,98.8948,0,U,67423,999,2243,.7054E-3,.1922E-3,0
STARLINK-36362,2026-005W,2026-06-07T12:20:51.394272,15.27602168,.0002427,42.9990,90.7324,272.3733,87.6841,0,U,67424,999,2243,.86667E-3,.2368E-3,0
